start=new Date('2022-04-04T00:00:00.000Z').valueOf();
sats=[{"OBJECT_TYPE":"PAYLOAD","CENTER_NAME":"EARTH","FILE":"3386965","RCS_SIZE":"LARGE","TIME_SYSTEM":"UTC","RA_OF_ASC_NODE":"107.7442","GP_ID":"200378629","REF_FRAME":"TEME","APOAPSIS":"548.140","NORAD_CAT_ID":"48592","EPHEMERIS_TYPE":"0","DECAY_DATE":null,"ELEMENT_SET_NO":"999","PERIAPSIS":"546.292","MEAN_MOTION":"15.06399262","MEAN_ELEMENT_THEORY":"SGP4","LAUNCH_DATE":"2021-05-15","TLE_LINE2":"2 48592  53.0541 107.7442 0001334  69.0543 291.0589 15.06399262 48639","INCLINATION":"53.0541","EPOCH":"2022-04-03T18:21:20.619072","TLE_LINE1":"1 48592U 21041AR  22093.76482198 -.00000699  00000-0 -28037-4 0  9997","MEAN_MOTION_DOT":"-0.00000699","OBJECT_ID":"2021-041AR","OBJECT_NAME":"STARLINK-2249","PERIOD":"95.592","MEAN_ANOMALY":"291.0589","MEAN_MOTION_DDOT":"0.0000000000000","COUNTRY_CODE":"US","ARG_OF_PERICENTER":"69.0543","CLASSIFICATION_TYPE":"U","ECCENTRICITY":"0.00013340","BSTAR":"-0.00002803700000","SEMIMAJOR_AXIS":"6925.351","REV_AT_EPOCH":"4863","SITE":"AFETR"},{"CLASSIFICATION_TYPE":"U","ARG_OF_PERICENTER":"59.7784","PERIOD":"95.593","MEAN_ANOMALY":"300.3360","OBJECT_NAME":"STARLINK-2250","COUNTRY_CODE":"US","MEAN_MOTION_DDOT":"0.0000000000000","SEMIMAJOR_AXIS":"6925.373","REV_AT_EPOCH":"4863","SITE":"AFETR","ECCENTRICITY":"0.00015670","BSTAR":"0.00005915500000","REF_FRAME":"TEME","GP_ID":"200378879","RA_OF_ASC_NODE":"107.7118","TIME_SYSTEM":"UTC","RCS_SIZE":"LARGE","EPHEMERIS_TYPE":"0","APOAPSIS":"548.323","NORAD_CAT_ID":"48593","CENTER_NAME":"EARTH","OBJECT_TYPE":"PAYLOAD","FILE":"3386965","TLE_LINE1":"1 48593U 21041AS  22093.77220026  .00000600  00000-0  59155-4 0  9994","OBJECT_ID":"2021-041AS","MEAN_MOTION_DOT":"0.00000600","DECAY_DATE":null,"ELEMENT_SET_NO":"999","EPOCH":"2022-04-03T18:31:58.102464","LAUNCH_DATE":"2021-05-15","TLE_LINE2":"2 48593  53.0542 107.7118 0001567  59.7784 300.3360 15.06392155 48637","INCLINATION":"53.0542","MEAN_ELEMENT_THEORY":"SGP4","PERIAPSIS":"546.152","MEAN_MOTION":"15.06392155"},{"RA_OF_ASC_NODE":"77.0429","GP_ID":"200379631","REF_FRAME":"TEME","TIME_SYSTEM":"UTC","RCS_SIZE":"LARGE","EPHEMERIS_TYPE":"0","APOAPSIS":"548.327","NORAD_CAT_ID":"48594","CENTER_NAME":"EARTH","OBJECT_TYPE":"PAYLOAD","FILE":"3386965","TLE_LINE1":"1 48594U 21041AT  22093.91667824  .00041120  00000-0  27657-2 0  9994","OBJECT_ID":"2021-041AT","MEAN_MOTION_DOT":"0.00041120","DECAY_DATE":null,"ELEMENT_SET_NO":"999","EPOCH":"2022-04-03T22:00:00.999936","INCLINATION":"53.0543","TLE_LINE2":"2 48594  53.0543  77.0429 0001469  88.7042 225.4909 15.06368762  3581","LAUNCH_DATE":"2021-05-15","PERIAPSIS":"546.292","MEAN_ELEMENT_THEORY":"SGP4","MEAN_MOTION":"15.06368762","CLASSIFICATION_TYPE":"U","ARG_OF_PERICENTER":"88.7042","MEAN_ANOMALY":"225.4909","PERIOD":"95.594","OBJECT_NAME":"STARLINK-2251","COUNTRY_CODE":"US","MEAN_MOTION_DDOT":"0.0000000000000","SEMIMAJOR_AXIS":"6925.444","SITE":"AFETR","REV_AT_EPOCH":"358","ECCENTRICITY":"0.00014690","BSTAR":"0.00276570000000"},{"PERIAPSIS":"546.253","MEAN_ELEMENT_THEORY":"SGP4","MEAN_MOTION":"15.06392182","TLE_LINE2":"2 48595  53.0537 107.7899 0001421  58.8579 301.2550 15.06392182 49902","LAUNCH_DATE":"2021-05-15","INCLINATION":"53.0537","EPOCH":"2022-04-03T18:05:25.724544","DECAY_DATE":null,"ELEMENT_SET_NO":"999","MEAN_MOTION_DOT":"-0.00001012","OBJECT_ID":"2021-041AU","TLE_LINE1":"1 48595U 21041AU  22093.75376996 -.00001012  00000-0 -49088-4 0  9996","FILE":"3386965","CENTER_NAME":"EARTH","OBJECT_TYPE":"PAYLOAD","APOAPSIS":"548.222","NORAD_CAT_ID":"48595","EPHEMERIS_TYPE":"0","RCS_SIZE":"LARGE","TIME_SYSTEM":"UTC","GP_ID":"200379382","RA_OF_ASC_NODE":"107.7899","REF_FRAME":"TEME","BSTAR":"-0.00004908800000","ECCENTRICITY":"0.00014210","REV_AT_EPOCH":"4990","SITE":"AFETR","SEMIMAJOR_AXIS":"6925.373","MEAN_MOTION_DDOT":"0.0000000000000","COUNTRY_CODE":"US","OBJECT_NAME":"STARLINK-2252","MEAN_ANOMALY":"301.2550","PERIOD":"95.593","ARG_OF_PERICENTER":"58.8579","CLASSIFICATION_TYPE":"U"},{"OBJECT_TYPE":"PAYLOAD","CENTER_NAME":"EARTH","FILE":"3386965","RCS_SIZE":"LARGE","GP_ID":"200378130","REF_FRAME":"TEME","RA_OF_ASC_NODE":"107.6954","TIME_SYSTEM":"UTC","EPHEMERIS_TYPE":"0","NORAD_CAT_ID":"48596","APOAPSIS":"548.433","ELEMENT_SET_NO":"999","DECAY_DATE":null,"MEAN_MOTION":"15.06389511","PERIAPSIS":"546.059","MEAN_ELEMENT_THEORY":"SGP4","EPOCH":"2022-04-03T18:37:16.532256","INCLINATION":"53.0539","TLE_LINE2":"2 48596  53.0539 107.6954 0001714  49.9890 310.1249 15.06389511 49094","LAUNCH_DATE":"2021-05-15","TLE_LINE1":"1 48596U 21041AV  22093.77588579  .00002912  00000-0  21440-3 0  9990","OBJECT_ID":"2021-041AV","MEAN_MOTION_DOT":"0.00002912","MEAN_ANOMALY":"310.1249","PERIOD":"95.593","OBJECT_NAME":"STARLINK-2253","COUNTRY_CODE":"US","MEAN_MOTION_DDOT":"0.0000000000000","CLASSIFICATION_TYPE":"U","ARG_OF_PERICENTER":"49.9890","ECCENTRICITY":"0.00017140","BSTAR":"0.00021440000000","SEMIMAJOR_AXIS":"6925.381","SITE":"AFETR","REV_AT_EPOCH":"4909"},{"MEAN_MOTION_DOT":"-0.00002436","OBJECT_ID":"2021-041AW","TLE_LINE1":"1 48597U 21041AW  22093.38518279 -.00002436  00000-0 -14473-3 0  9999","MEAN_ELEMENT_THEORY":"SGP4","PERIAPSIS":"546.193","MEAN_MOTION":"15.06382190","TLE_LINE2":"2 48597  53.0549 109.4537 0001552  72.6005 287.5154 15.06382190 49845","LAUNCH_DATE":"2021-05-15","INCLINATION":"53.0549","EPOCH":"2022-04-03T09:14:39.793056","ELEMENT_SET_NO":"999","DECAY_DATE":null,"NORAD_CAT_ID":"48597","APOAPSIS":"548.343","EPHEMERIS_TYPE":"0","RCS_SIZE":"LARGE","TIME_SYSTEM":"UTC","GP_ID":"200378380","REF_FRAME":"TEME","RA_OF_ASC_NODE":"109.4537","FILE":"3386965","OBJECT_TYPE":"PAYLOAD","CENTER_NAME":"EARTH","SITE":"AFETR","REV_AT_EPOCH":"4984","SEMIMAJOR_AXIS":"6925.403","BSTAR":"-0.00014473000000","ECCENTRICITY":"0.00015520","ARG_OF_PERICENTER":"72.6005","CLASSIFICATION_TYPE":"U","MEAN_MOTION_DDOT":"0.0000000000000","COUNTRY_CODE":"US","OBJECT_NAME":"STARLINK-2255","PERIOD":"95.593","MEAN_ANOMALY":"287.5154"},{"TLE_LINE1":"1 48598U 21041AX  22093.52155297 -.00001190  00000-0 -61020-4 0  9990","MEAN_MOTION_DOT":"-0.00001190","OBJECT_ID":"2021-041AX","ELEMENT_SET_NO":"999","DECAY_DATE":null,"MEAN_ELEMENT_THEORY":"SGP4","PERIAPSIS":"546.256","MEAN_MOTION":"15.06390333","INCLINATION":"53.0528","TLE_LINE2":"2 48598  53.0528 108.8250 0001425  64.9380 295.1757 15.06390333 49052","LAUNCH_DATE":"2021-05-15","EPOCH":"2022-04-03T12:31:02.176608","RCS_SIZE":"LARGE","TIME_SYSTEM":"UTC","RA_OF_ASC_NODE":"108.8250","GP_ID":"200379132","REF_FRAME":"TEME","NORAD_CAT_ID":"48598","APOAPSIS":"548.230","EPHEMERIS_TYPE":"0","OBJECT_TYPE":"PAYLOAD","CENTER_NAME":"EARTH","FILE":"3386965","SEMIMAJOR_AXIS":"6925.378","SITE":"AFETR","REV_AT_EPOCH":"4905","ECCENTRICITY":"0.00014250","BSTAR":"-0.00006102000000","ARG_OF_PERICENTER":"64.9380","CLASSIFICATION_TYPE":"U","OBJECT_NAME":"STARLINK-2256","MEAN_ANOMALY":"295.1757","PERIOD":"95.593","MEAN_MOTION_DDOT":"0.0000000000000","COUNTRY_CODE":"US"},{"TLE_LINE1":"1 48599U 21041AY  22093.68051197 -.00001730  00000-0 -97323-4 0  9997","MEAN_MOTION_DOT":"-0.00001730","OBJECT_ID":"2021-041AY","ELEMENT_SET_NO":"999","DECAY_DATE":null,"TLE_LINE2":"2 48599  53.0552  83.1067 0001528  58.2326 301.8812 15.06391199 50242","LAUNCH_DATE":"2021-05-15","INCLINATION":"53.0552","EPOCH":"2022-04-03T16:19:56.234208","MEAN_ELEMENT_THEORY":"SGP4","PERIAPSIS":"546.182","MEAN_MOTION":"15.06391199","TIME_SYSTEM":"UTC","GP_ID":"200379882","RA_OF_ASC_NODE":"83.1067","REF_FRAME":"TEME","RCS_SIZE":"LARGE","APOAPSIS":"548.299","NORAD_CAT_ID":"48599","EPHEMERIS_TYPE":"0","CENTER_NAME":"EARTH","OBJECT_TYPE":"PAYLOAD","FILE":"3386965","SEMIMAJOR_AXIS":"6925.376","SITE":"AFETR","REV_AT_EPOCH":"5024","ECCENTRICITY":"0.00015280","BSTAR":"-0.00009732300000","ARG_OF_PERICENTER":"58.2326","CLASSIFICATION_TYPE":"U","OBJECT_NAME":"STARLINK-2274","MEAN_ANOMALY":"301.8812","PERIOD":"95.593","MEAN_MOTION_DDOT":"0.0000000000000","COUNTRY_CODE":"US"},{"SEMIMAJOR_AXIS":"6925.374","SITE":"AFETR","REV_AT_EPOCH":"5003","ECCENTRICITY":"0.00015380","BSTAR":"-0.00002857800000","CLASSIFICATION_TYPE":"U","ARG_OF_PERICENTER":"72.2373","PERIOD":"95.593","MEAN_ANOMALY":"287.8783","OBJECT_NAME":"STARLINK-2275","COUNTRY_CODE":"US","MEAN_MOTION_DDOT":"0.0000000000000","TLE_LINE1":"1 48600U 21041AZ  22093.71782098 -.00000707  00000-0 -28578-4 0  9994","OBJECT_ID":"2021-041AZ","MEAN_MOTION_DOT":"-0.00000707","ELEMENT_SET_NO":"999","DECAY_DATE":null,"EPOCH":"2022-04-03T17:13:39.732672","INCLINATION":"53.0537","TLE_LINE2":"2 48600  53.0537  97.9340 0001538  72.2373 287.8783 15.06391791 50039","LAUNCH_DATE":"2021-05-15","MEAN_ELEMENT_THEORY":"SGP4","PERIAPSIS":"546.174","MEAN_MOTION":"15.06391791","GP_ID":"200378630","REF_FRAME":"TEME","RA_OF_ASC_NODE":"97.9340","TIME_SYSTEM":"UTC","RCS_SIZE":"LARGE","EPHEMERIS_TYPE":"0","APOAPSIS":"548.304","NORAD_CAT_ID":"48600","OBJECT_TYPE":"PAYLOAD","CENTER_NAME":"EARTH","FILE":"3386965"},{"BSTAR":"-0.00016218000000","ECCENTRICITY":"0.00019240","REV_AT_EPOCH":"5019","SITE":"AFETR","SEMIMAJOR_AXIS":"6925.389","COUNTRY_CODE":"US","MEAN_MOTION_DDOT":"0.0000000000000","PERIOD":"95.593","MEAN_ANOMALY":"308.4828","OBJECT_NAME":"STARLINK-2713","CLASSIFICATION_TYPE":"U","ARG_OF_PERICENTER":"51.6334","EPOCH":"2022-04-03T10:45:32.713056","LAUNCH_DATE":"2021-05-15","TLE_LINE2":"2 48602  53.0548  84.1524 0001924  51.6334 308.4828 15.06386780 50191","INCLINATION":"53.0548","PERIAPSIS":"545.922","MEAN_MOTION":"15.06386780","MEAN_ELEMENT_THEORY":"SGP4","ELEMENT_SET_NO":"999","DECAY_DATE":null,"OBJECT_ID":"2021-041BB","MEAN_MOTION_DOT":"-0.00002696","TLE_LINE1":"1 48602U 21041BB  22093.44829529 -.00002696  00000-0 -16218-3 0  9993","FILE":"3386965","CENTER_NAME":"EARTH","OBJECT_TYPE":"PAYLOAD","EPHEMERIS_TYPE":"0","NORAD_CAT_ID":"48602","APOAPSIS":"548.587","RA_OF_ASC_NODE":"84.1524","GP_ID":"200378880","REF_FRAME":"TEME","TIME_SYSTEM":"UTC","RCS_SIZE":"LARGE"}];
